[{"OBJECT_NAME":"CENTISPACE-1 S8","OBJECT_ID":"2025-007C","EPOCH":"2026-03-09T22:54:04.859424","MEAN_MOTION":13.83253817,"ECCENTRICITY":0.00084738,"INCLINATION":54.9839,"RA_OF_ASC_NODE":278.5467,"ARG_OF_PERICENTER":264.7719,"MEAN_ANOMALY":95.2272,"EPHEMERIS_TYPE":0,"CLASSIFICATION_TYPE":"U","NORAD_CAT_ID":62577,"ELEMENT_SET_NO":999,"REV_AT_EPOCH":6102,"BSTAR":9.9080577e-5,"MEAN_MOTION_DOT":-3.2e-7,"MEAN_MOTION_DDOT":0},{"OBJECT_NAME":"SL-16 DEB","OBJECT_ID":"1985-097E","EPOCH":"2026-03-09T21:12:08.917056","MEAN_MOTION":13.77190841,"ECCENTRICITY":0.01898334,"INCLINATION":70.9964,"RA_OF_ASC_NODE":329.9946,"ARG_OF_PERICENTER":341.8072,"MEAN_ANOMALY":95.932,"EPHEMERIS_TYPE":0,"CLASSIFICATION_TYPE":"U","NORAD_CAT_ID":16391,"ELEMENT_SET_NO":999,"REV_AT_EPOCH":2814,"BSTAR":0.00010436352,"MEAN_MOTION_DOT":7.4e-7,"MEAN_MOTION_DDOT":0}]
